[{"OBJECT_NAME":"EMISAT","OBJECT_ID":"2019-018A","EPOCH":"2026-03-09T23:07:44.271840","MEAN_MOTION":14.43625084,"ECCENTRICITY":0.00191389,"INCLINATION":98.4768,"RA_OF_ASC_NODE":128.257,"ARG_OF_PERICENTER":153.4906,"MEAN_ANOMALY":206.7268,"EPHEMERIS_TYPE":0,"CLASSIFICATION_TYPE":"U","NORAD_CAT_ID":44078,"ELEMENT_SET_NO":999,"REV_AT_EPOCH":36574,"BSTAR":5.8527741e-5,"MEAN_MOTION_DOT":1.55e-6,"MEAN_MOTION_DDOT":0},{"OBJECT_NAME":"IRIDIUM 71","OBJECT_ID":"1998-026B","EPOCH":"2026-03-09T19:51:55.860768","MEAN_MOTION":14.41407169,"ECCENTRICITY":9.324e-5,"INCLINATION":86.4022,"RA_OF_ASC_NODE":337.8049,"ARG_OF_PERICENTER":13.3301,"MEAN_ANOMALY":346.7923,"EPHEMERIS_TYPE":0,"CLASSIFICATION_TYPE":"U","NORAD_CAT_ID":25320,"ELEMENT_SET_NO":999,"REV_AT_EPOCH":46185,"BSTAR":0.00016355247,"MEAN_MOTION_DOT":5.5e-6,"MEAN_MOTION_DDOT":0}]
